{
"type": "FeatureCollection",
"name": "sedgwick_boundary_approx",
"crs": { "type": "name", "properties": { "name": "urn:ogc:def:crs:OGC:1.3:CRS84" } },
"features": [
{ "type": "Feature", "properties": { "id": "ID_00000", "Name": "Sedgwick Reserve", "description": "<html xmlns:fo=\"http://www.w3.org/1999/XSL/Format\" xmlns:msxsl=\"urn:schemas-microsoft-com:xslt\">\n\n<head>\n\n<META http-equiv=\"Content-Type\" content=\"text/html\">\n\n<meta http-equiv=\"content-type\" content=\"text/html; charset=UTF-8\">\n\n</head>\n\n<body style=\"margin:0px 0px 0px 0px;overflow:auto;background:#FFFFFF;\">\n\n<table style=\"font-family:Arial,Verdana,Times;font-size:12px;text-align:left;width:100%;border-collapse:collapse;padding:3px 3px 3px 3px\">\n\n<tr style=\"text-align:center;font-weight:bold;background:#9CBCE2\">\n\n<td>Sedgwick Reserve</td>\n\n</tr>\n\n<tr>\n\n<td>\n\n<table style=\"font-family:Arial,Verdana,Times;font-size:12px;text-align:left;width:100%;border-spacing:0px; padding:3px 3px 3px 3px\">\n\n<tr>\n\n<td>Name</td>\n\n<td>Sedgwick Reserve</td>\n\n</tr>\n\n<tr bgcolor=\"#D4E4F3\">\n\n<td>Campus</td>\n\n<td>Santa Barbara</td>\n\n</tr>\n\n<tr>\n\n<td>County</td>\n\n<td>Santa Barbara</td>\n\n</tr>\n\n<tr bgcolor=\"#D4E4F3\">\n\n<td>Acreage</td>\n\n<td>5874.21</td>\n\n</tr>\n\n<tr>\n\n<td>RESERVEID</td>\n\n<td>32</td>\n\n</tr>\n\n<tr bgcolor=\"#D4E4F3\">\n\n<td>COUNTYID</td>\n\n<td>42</td>\n\n</tr>\n\n<tr>\n\n<td>CAMPUSID</td>\n\n<td>9</td>\n\n</tr>\n\n</table>\n\n</td>\n\n</tr>\n\n</table>\n\n</body>\n\n</html>\n\n", "timestamp": null, "begin": null, "end": null, "altitudeMode": "clampToGround", "tessellate": -1, "extrude": 0, "visibility": -1, "drawOrder": null, "icon": null, "snippet": "" }, "geometry": { "type": "MultiPolygon", "coordinates": [ [ [ [ -120.053873825448093, 34.74218533154685, 0.0 ], [ -120.053887120424406, 34.742186985596888, 0.0 ], [ -120.054072167135203, 34.742208350841501, 0.0 ], [ -120.054234076408505, 34.742217808370143, 0.0 ], [ -120.054381528680096, 34.742224889742168, 0.0 ], [ -120.054479822835802, 34.742220075890728, 0.0 ], [ -120.0545809844037, 34.742179508303849, 0.0 ], [ -120.054685578699605, 34.742130500671323, 0.0 ], [ -120.0546879206874, 34.74212940321533, 0.0 ], [ -120.054786199670204, 34.742103137912871, 0.0 ], [ -120.054924934359804, 34.74204825101635, 0.0 ], [ -120.055055011195606, 34.742014819292429, 0.0 ], [ -120.055161975543001, 34.742005233372893, 0.0 ], [ -120.055257377496005, 34.741998037477053, 0.0 ], [ -120.055317042246301, 34.741998008795363, 0.0 ], [ -120.055342367360495, 34.741991235682768, 0.0 ], [ -120.055355671312498, 34.74199322287599, 0.0 ], [ -120.05548001436, 34.742028916158922, 0.0 ], [ -120.055610135012103, 34.742057455513283, 0.0 ], [ -120.055740252359996, 34.742081227388432, 0.0 ], [ -120.055838566682993, 34.742105015461739, 0.0 ], [ -120.055957126930593, 34.742138326465593, 0.0 ], [ -120.056081472193497, 34.742176402758957, 0.0 ], [ -120.056159560139704, 34.742214500612462, 0.0 ], [ -120.056228965702005, 34.742240686127879, 0.0 ], [ -120.056324377055105, 34.742247789539022, 0.0 ], [ -120.056399541220102, 34.742240602606643, 0.0 ], [ -120.056460241378701, 34.742221504395687, 0.0 ], [ -120.056535389991097, 34.742192865286789, 0.0 ], [ -120.056607643803304, 34.742159460220194, 0.0 ], [ -120.056668341027304, 34.742137978233011, 0.0 ], [ -120.056700731245598, 34.742108272740083, 0.0 ], [ -120.056720346413996, 34.742090282871992, 0.0 ], [ -120.056807015565596, 34.742002049838177, 0.0 ], [ -120.056844529045307, 34.741904306370493, 0.0 ], [ -120.056922497333503, 34.741777941563477, 0.0 ], [ -120.056983143143199, 34.741684953913861, 0.0 ], [ -120.057023562077902, 34.741608661026852, 0.0 ], [ -120.057095733319102, 34.741463230500599, 0.0 ], [ -120.057127468229297, 34.741370257097088, 0.0 ], [ -120.057121602101304, 34.741255851145787, 0.0 ], [ -120.057069496589193, 34.74116530301972, 0.0 ], [ -120.056994265745999, 34.7410795336625, 0.0 ], [ -120.056973958582702, 34.740984203279353, 0.0 ], [ -120.057011493963401, 34.740917445551531, 0.0 ], [ -120.057095303319102, 34.740874500634753, 0.0 ], [ -120.057228272007194, 34.740845832318193, 0.0 ], [ -120.057393057834702, 34.74083859919493, 0.0 ], [ -120.057563625026702, 34.740831363842823, 0.0 ], [ -120.057566097742097, 34.740832805779007, 0.0 ], [ -120.057633015772097, 34.740838479197357, 0.0 ], [ -120.057774676215203, 34.740836025352763, 0.0 ], [ -120.057939472571107, 34.740843092555487, 0.0 ], [ -120.058075365783594, 34.740859708797537, 0.0 ], [ -120.0581678648646, 34.740840593598719, 0.0 ], [ -120.058254562285001, 34.740792879034373, 0.0 ], [ -120.058297573252304, 34.740741097562442, 0.0 ], [ -120.058323885482693, 34.740709420875561, 0.0 ], [ -120.058381682750706, 34.740678405648232, 0.0 ], [ -120.058488586010895, 34.740590160958853, 0.0 ], [ -120.058557904514899, 34.740499551635963, 0.0 ], [ -120.058606964606696, 34.740382734018873, 0.0 ], [ -120.058598206951501, 34.740270713183023, 0.0 ], [ -120.058531625750007, 34.740153954436927, 0.0 ], [ -120.058436165770104, 34.740080113690887, 0.0 ], [ -120.058314680126401, 34.739996751376033, 0.0 ], [ -120.058253913969693, 34.739922892871469, 0.0 ], [ -120.058262527884295, 34.739844232760902, 0.0 ], [ -120.058380963599006, 34.739715461645638, 0.0 ], [ -120.058612151949404, 34.739589017557478, 0.0 ], [ -120.058779746246998, 34.739476906642501, 0.0 ], [ -120.058950235940202, 34.73936956043147, 0.0 ], [ -120.059140869313794, 34.739140643495389, 0.0 ], [ -120.059259302516097, 34.739011872293972, 0.0 ], [ -120.059487559917301, 34.738837757105642, 0.0 ], [ -120.0595944575945, 34.738747127567677, 0.0 ], [ -120.059704262570705, 34.738677948578037, 0.0 ], [ -120.059874740856898, 34.738561067126867, 0.0 ], [ -120.059975855394498, 34.738470440221882, 0.0 ], [ -120.0600740576578, 34.73835121244818, 0.0 ], [ -120.060131785744005, 34.738232005747321, 0.0 ], [ -120.060232837116999, 34.738060338170122, 0.0 ], [ -120.060325269075094, 34.737957797986617, 0.0 ], [ -120.060409025548594, 34.737852878600847, 0.0 ], [ -120.060513024145905, 34.737755099522417, 0.0 ], [ -120.060611257955301, 34.737678774662847, 0.0 ], [ -120.060764392622005, 34.737569051953223, 0.0 ], [ -120.060920441358704, 34.73748792890084, 0.0 ], [ -120.061085160937296, 34.737406801926078, 0.0 ], [ -120.061220989112996, 34.73734714138299, 0.0 ], [ -120.061420404074198, 34.737270761895203, 0.0 ], [ -120.061619824281706, 34.737201532183832, 0.0 ], [ -120.061793189472695, 34.73708702985882, 0.0 ], [ -120.062021493137394, 34.736986798809347, 0.0 ], [ -120.062197742671302, 34.736865143262207, 0.0 ], [ -120.062385567438895, 34.736757783221272, 0.0 ], [ -120.062509808166794, 34.736671907844539, 0.0 ], [ -120.062680323748793, 34.736612226676563, 0.0 ], [ -120.062827737476894, 34.736583543895158, 0.0 ], [ -120.062966489359994, 34.736569166837462, 0.0 ], [ -120.063122587703404, 34.736554780092114, 0.0 ], [ -120.063205601292594, 34.736528110446343, 0.0 ], [ -120.063278655957305, 34.736504640674042, 0.0 ], [ -120.063299825818007, 34.736482021010957, 0.0 ], [ -120.063396188740995, 34.736434885318488, 0.0 ], [ -120.063914878538995, 34.736408897539746, 0.0 ], [ -120.064040241135899, 34.735226386390927, 0.0 ], [ -120.064547474654404, 34.734584071610762, 0.0 ], [ -120.064556932124603, 34.734572095637397, 0.0 ], [ -120.0645772708923, 34.734561590968191, 0.0 ], [ -120.064632488988806, 34.734502611988937, 0.0 ], [ -120.064732628207594, 34.734468972397302, 0.0 ], [ -120.064807142377603, 34.734421771157578, 0.0 ], [ -120.064808018178795, 34.734421215732453, 0.0 ], [ -120.064858712200504, 34.734415678375314, 0.0 ], [ -120.064890863314304, 34.734355611416987, 0.0 ], [ -120.064904853984103, 34.734326654289923, 0.0 ], [ -120.0649338697053, 34.734239471305067, 0.0 ], [ -120.065009648596799, 34.7341421487898, 0.0 ], [ -120.065040321350097, 34.734104579866361, 0.0 ], [ -120.065046323964495, 34.734050642693141, 0.0 ], [ -120.065039452640306, 34.733994141735188, 0.0 ], [ -120.065037229280605, 34.733921979339343, 0.0 ], [ -120.065036244932102, 34.733834071848683, 0.0 ], [ -120.065081519813901, 34.733808122989338, 0.0 ], [ -120.065196648275503, 34.733736536425113, 0.0 ], [ -120.065314831892806, 34.733694317957912, 0.0 ], [ -120.065353093118603, 34.733692987265393, 0.0 ], [ -120.065439197145395, 34.733670276176888, 0.0 ], [ -120.065507336231306, 34.733666391595207, 0.0 ], [ -120.065661424847804, 34.733657606778692, 0.0 ], [ -120.065915094711499, 34.733643442417169, 0.0 ], [ -120.065965868193899, 34.73363565236324, 0.0 ], [ -120.066049891309405, 34.733633170901143, 0.0 ], [ -120.066158697761196, 34.733624527629097, 0.0 ], [ -120.066326822891995, 34.733617313058033, 0.0 ], [ -120.066423428951396, 34.733608027949877, 0.0 ], [ -120.0666366238992, 34.73349790645544, 0.0 ], [ -120.066640985596095, 34.73349418696435, 0.0 ], [ -120.066772399715404, 34.733365543065368, 0.0 ], [ -120.066930800429901, 34.733210481678618, 0.0 ], [ -120.066974904762105, 34.733159715739873, 0.0 ], [ -120.067035928622005, 34.733093583792112, 0.0 ], [ -120.067757147319796, 34.732376184815777, 0.0 ], [ -120.068113086684306, 34.73202212387114, 0.0 ], [ -120.069108739442399, 34.730903486530913, 0.0 ], [ -120.069151141637604, 34.730855845775679, 0.0 ], [ -120.069257850343504, 34.730735952876607, 0.0 ], [ -120.070062712833206, 34.729779601049152, 0.0 ], [ -120.070337399990507, 34.729421159489263, 0.0 ], [ -120.070324024076797, 34.729178100201487, 0.0 ], [ -120.070307473961407, 34.72887736475947, 0.0 ], [ -120.070305876608899, 34.728852964838943, 0.0 ], [ -120.070275560318706, 34.728389858095333, 0.0 ], [ -120.070177242364394, 34.727927793535201, 0.0 ], [ -120.069881417359397, 34.727474495437271, 0.0 ], [ -120.069891757600303, 34.727452209769972, 0.0 ], [ -120.069920493318804, 34.727392059315022, 0.0 ], [ -120.069972113341706, 34.727282884961667, 0.0 ], [ -120.070026017082597, 34.727167004917121, 0.0 ], [ -120.070054071243902, 34.727107263822603, 0.0 ], [ -120.070083567977093, 34.727044451677081, 0.0 ], [ -120.070124847438905, 34.726957562014782, 0.0 ], [ -120.070165445080093, 34.726870655630229, 0.0 ], [ -120.070182682359203, 34.726846282905932, 0.0 ], [ -120.070238813442202, 34.726802566385878, 0.0 ], [ -120.070249334247606, 34.72679420619864, 0.0 ], [ -120.070412218125995, 34.726664774175163, 0.0 ], [ -120.070486472276698, 34.72661022608564, 0.0 ], [ -120.070570083148596, 34.726551698468157, 0.0 ], [ -120.070677528473297, 34.725915307687593, 0.0 ], [ -120.070672463875198, 34.725826005758947, 0.0 ], [ -120.070672029318303, 34.72572233750445, 0.0 ], [ -120.070664380268596, 34.725629763385918, 0.0 ], [ -120.070664401604702, 34.725571174379127, 0.0 ], [ -120.0707209757079, 34.725534228240591, 0.0 ], [ -120.070744608657094, 34.725517998037908, 0.0 ], [ -120.070816078451799, 34.725468914268163, 0.0 ], [ -120.070902318730504, 34.72540338676685, 0.0 ], [ -120.070976934584294, 34.725357861191618, 0.0 ], [ -120.070983615238404, 34.725303939072347, 0.0 ], [ -120.070988965387997, 34.725229704943679, 0.0 ], [ -120.070993905325395, 34.725128420622411, 0.0 ], [ -120.070999003936805, 34.725022631840218, 0.0 ], [ -120.071011182342104, 34.724952441087083, 0.0 ], [ -120.071016135860702, 34.724923893938403, 0.0 ], [ -120.071013280624896, 34.724772845791946, 0.0 ], [ -120.071031433709905, 34.724606529298647, 0.0 ], [ -120.071037385585996, 34.724534563142022, 0.0 ], [ -120.071048892049205, 34.72440188834539, 0.0 ], [ -120.071071101203103, 34.724255950595378, 0.0 ], [ -120.071080495543697, 34.724163786551202, 0.0 ], [ -120.071084402227598, 34.724091771178493, 0.0 ], [ -120.071126499502597, 34.72405898225194, 0.0 ], [ -120.071188922065502, 34.724010909152909, 0.0 ], [ -120.071266900103396, 34.723947435887673, 0.0 ], [ -120.071575717737304, 34.723722789186439, 0.0 ], [ -120.0715967409662, 34.723707495510752, 0.0 ], [ -120.071654709441802, 34.723650301787693, 0.0 ], [ -120.071762795241099, 34.723565018208127, 0.0 ], [ -120.071858974646503, 34.723488462402408, 0.0 ], [ -120.071893445554196, 34.723439716293022, 0.0 ], [ -120.0719268713774, 34.723381931475011, 0.0 ], [ -120.071871131111493, 34.723202969350908, 0.0 ], [ -120.071853326451006, 34.723145806625013, 0.0 ], [ -120.071716354546894, 34.722831539041692, 0.0 ], [ -120.071647508654607, 34.722732985069563, 0.0 ], [ -120.071660937845294, 34.722719787926167, 0.0 ], [ -120.071527724216594, 34.722608418519471, 0.0 ], [ -120.071443495343104, 34.722559070633437, 0.0 ], [ -120.071377433686493, 34.722516919289561, 0.0 ], [ -120.071364489257107, 34.722419710540159, 0.0 ], [ -120.071377178768898, 34.722350159784199, 0.0 ], [ -120.071400796062207, 34.722222283325237, 0.0 ], [ -120.071419905194603, 34.72216415433779, 0.0 ], [ -120.071428345835301, 34.722099007864919, 0.0 ], [ -120.0714410635928, 34.721873971754803, 0.0 ], [ -120.071417938795307, 34.721794545312157, 0.0 ], [ -120.071423936065699, 34.721740608100959, 0.0 ], [ -120.071399095397496, 34.721694963662451, 0.0 ], [ -120.071395797318104, 34.721688904634171, 0.0 ], [ -120.071382928899695, 34.721665258390708, 0.0 ], [ -120.071289603210403, 34.72139034896729, 0.0 ], [ -120.071247491348998, 34.721249623461681, 0.0 ], [ -120.071240427779102, 34.720985802416827, 0.0 ], [ -120.071229064761198, 34.720940461260902, 0.0 ], [ -120.071226357875105, 34.720881807028057, 0.0 ], [ -120.071202961964502, 34.720462106907647, 0.0 ], [ -120.071249908822907, 34.720427182452568, 0.0 ], [ -120.071187450072998, 34.720360330310463, 0.0 ], [ -120.071191184770797, 34.72025450947131, 0.0 ], [ -120.071179298884303, 34.720204648015049, 0.0 ], [ -120.071110161343299, 34.720191717301063, 0.0 ], [ -120.071024140744299, 34.720173873696027, 0.0 ], [ -120.070770486583299, 34.720111433732718, 0.0 ], [ -120.070686844524502, 34.720108344737888, 0.0 ], [ -120.070595367551107, 34.720104966808023, 0.0 ], [ -120.070486452573903, 34.720097838345417, 0.0 ], [ -120.070417236432206, 34.720087158547763, 0.0 ], [ -120.070283575890798, 34.720065914825689, 0.0 ], [ -120.0702209846432, 34.720080182387392, 0.0 ], [ -120.070096320698795, 34.719978030793357, 0.0 ], [ -120.0698187364886, 34.719685164896987, 0.0 ], [ -120.069722104065207, 34.719581434618448, 0.0 ], [ -120.069706274431496, 34.719569363481092, 0.0 ], [ -120.069639719186895, 34.719518608867588, 0.0 ], [ -120.069473880745306, 34.71930730169678, 0.0 ], [ -120.069368499837495, 34.719180826563758, 0.0 ], [ -120.069329983933301, 34.719112296774107, 0.0 ], [ -120.069245065383498, 34.719024621588758, 0.0 ], [ -120.069075867278997, 34.718831260317238, 0.0 ], [ -120.069027931763102, 34.71877827797308, 0.0 ], [ -120.068953455979994, 34.718742683115501, 0.0 ], [ -120.068891774044701, 34.718711903832499, 0.0 ], [ -120.068825240613506, 34.718683260693943, 0.0 ], [ -120.068625117767596, 34.718592810759318, 0.0 ], [ -120.068568445346003, 34.718555391555178, 0.0 ], [ -120.068463964364298, 34.718480765793323, 0.0 ], [ -120.068425540138506, 34.718448293167967, 0.0 ], [ -120.068372277280901, 34.718410955614502, 0.0 ], [ -120.068314642136897, 34.718369102739388, 0.0 ], [ -120.068243891387894, 34.718317726349738, 0.0 ], [ -120.068128220581301, 34.718231563981149, 0.0 ], [ -120.068035408506105, 34.718154965180887, 0.0 ], [ -120.068002039076603, 34.718133880994273, 0.0 ], [ -120.067933269449199, 34.717994765977309, 0.0 ], [ -120.067883642803693, 34.717912447072472, 0.0 ], [ -120.067842559991604, 34.717839348074833, 0.0 ], [ -120.067806169914107, 34.717768615595638, 0.0 ], [ -120.067767813842195, 34.717695582519298, 0.0 ], [ -120.067743500322294, 34.717651761088717, 0.0 ], [ -120.067715858674006, 34.717601940871397, 0.0 ], [ -120.067679343745795, 34.717515431354521, 0.0 ], [ -120.067637340841102, 34.717449069556203, 0.0 ], [ -120.067643385475193, 34.717413160650231, 0.0 ], [ -120.067582933169305, 34.717328328188103, 0.0 ], [ -120.067544702569293, 34.717271071093073, 0.0 ], [ -120.067487316140998, 34.717253915158572, 0.0 ], [ -120.067257930658798, 34.717180786652378, 0.0 ], [ -120.066945459734498, 34.717103401702623, 0.0 ], [ -120.066634467872007, 34.717003517433938, 0.0 ], [ -120.066514852333995, 34.716991022164187, 0.0 ], [ -120.066410149851293, 34.716980084782058, 0.0 ], [ -120.066267917016006, 34.716969896851808, 0.0 ], [ -120.066120574825206, 34.71689198282732, 0.0 ], [ -120.065877070466101, 34.716793723380803, 0.0 ], [ -120.065579811032094, 34.716679643145568, 0.0 ], [ -120.065551277379797, 34.716668692135208, 0.0 ], [ -120.065465673860402, 34.716542691023342, 0.0 ], [ -120.065245339122598, 34.716406680146108, 0.0 ], [ -120.065021212266501, 34.716184948841487, 0.0 ], [ -120.064719909787996, 34.71600417030092, 0.0 ], [ -120.064343623837999, 34.715821583428777, 0.0 ], [ -120.064112971878401, 34.715784472682792, 0.0 ], [ -120.064009905270694, 34.715727905409913, 0.0 ], [ -120.063795974581794, 34.715526697825197, 0.0 ], [ -120.0634683915643, 34.71525965243152, 0.0 ], [ -120.063430712464694, 34.715228251478983, 0.0 ], [ -120.063164872964506, 34.715006707791503, 0.0 ], [ -120.063160303632401, 34.71500247707209, 0.0 ], [ -120.063107401075598, 34.714953492906382, 0.0 ], [ -120.063022016640303, 34.714879323534667, 0.0 ], [ -120.063072892223801, 34.714849002677688, 0.0 ], [ -120.063072352715395, 34.714767867105202, 0.0 ], [ -120.0630652701239, 34.714659532169442, 0.0 ], [ -120.063100422955799, 34.714437292095504, 0.0 ], [ -120.063067003362093, 34.714359869040798, 0.0 ], [ -120.062994942717694, 34.714333343416577, 0.0 ], [ -120.062936886811002, 34.714354476512007, 0.0 ], [ -120.062676697704603, 34.714361719387298, 0.0 ], [ -120.062590764473498, 34.714341618036059, 0.0 ], [ -120.062483948098503, 34.714352561466477, 0.0 ], [ -120.062426202717305, 34.714326379948247, 0.0 ], [ -120.062265659254905, 34.714351800641147, 0.0 ], [ -120.0622405622819, 34.714366968824251, 0.0 ], [ -120.062093200160703, 34.714347638161719, 0.0 ], [ -120.061937667199601, 34.714366418911219, 0.0 ], [ -120.061849212541006, 34.714367719655293, 0.0 ], [ -120.061828090001995, 34.714357493423392, 0.0 ], [ -120.0617897872458, 34.714370397492303, 0.0 ], [ -120.061727239334104, 34.714374860716383, 0.0 ], [ -120.061638305153807, 34.714381727188353, 0.0 ], [ -120.061613446314396, 34.714390141213798, 0.0 ], [ -120.061507275965695, 34.714421379300767, 0.0 ], [ -120.061446253747704, 34.714449201356487, 0.0 ], [ -120.061391685585093, 34.714468164289272, 0.0 ], [ -120.061312542594294, 34.714506815507939, 0.0 ], [ -120.061298909125796, 34.714506486750032, 0.0 ], [ -120.061202805072597, 34.714568148182508, 0.0 ], [ -120.061187213506599, 34.714578152637472, 0.0 ], [ -120.061168577413099, 34.714622771389521, 0.0 ], [ -120.061033581592497, 34.714678101261121, 0.0 ], [ -120.060974047056305, 34.714721731796942, 0.0 ], [ -120.060950993483999, 34.714736949058647, 0.0 ], [ -120.060876778605504, 34.714732166875862, 0.0 ], [ -120.060823770012902, 34.714728751772732, 0.0 ], [ -120.060615414804502, 34.714715326107253, 0.0 ], [ -120.060426319885394, 34.714737800784746, 0.0 ], [ -120.060330525570194, 34.714726473892327, 0.0 ], [ -120.060218770066996, 34.714703494302412, 0.0 ], [ -120.060194271365802, 34.714639442013628, 0.0 ], [ -120.060116989571597, 34.714437387310383, 0.0 ], [ -120.060018220146105, 34.714182618863482, 0.0 ], [ -120.059964861426195, 34.714032605210789, 0.0 ], [ -120.059931519156507, 34.713940627465298, 0.0 ], [ -120.059804123067195, 34.713589183992021, 0.0 ], [ -120.059742362910697, 34.713418808327397, 0.0 ], [ -120.059488352612306, 34.712808757526822, 0.0 ], [ -120.059200582863696, 34.712188877485012, 0.0 ], [ -120.059072287996401, 34.711952439623751, 0.0 ], [ -120.0589540273116, 34.711734491521632, 0.0 ], [ -120.058905081969101, 34.711647025694234, 0.0 ], [ -120.058619116487506, 34.711136004306638, 0.0 ], [ -120.058346622284006, 34.710662963544628, 0.0 ], [ -120.058162565500695, 34.710331769861583, 0.0 ], [ -120.058004541045904, 34.710055288588649, 0.0 ], [ -120.057959091843202, 34.709957380127527, 0.0 ], [ -120.057860664910905, 34.709745346512989, 0.0 ], [ -120.057761188648598, 34.709510840764771, 0.0 ], [ -120.057752512046406, 34.709484503293723, 0.0 ], [ -120.057681116950505, 34.7092677901746, 0.0 ], [ -120.057598601924298, 34.70903594679217, 0.0 ], [ -120.057543953612907, 34.708807031642657, 0.0 ], [ -120.057534089000896, 34.708565677128263, 0.0 ], [ -120.057494207080296, 34.70817036561786, 0.0 ], [ -120.057469173047295, 34.707856536061179, 0.0 ], [ -120.057455854561596, 34.707758545372478, 0.0 ], [ -120.057444283274293, 34.707673407626203, 0.0 ], [ -120.057289075300204, 34.707425905666419, 0.0 ], [ -120.057224750505995, 34.70732332868922, 0.0 ], [ -120.057104068623701, 34.707090563008379, 0.0 ], [ -120.056972721282506, 34.706850779133909, 0.0 ], [ -120.056815432204203, 34.706592340627182, 0.0 ], [ -120.056678996807705, 34.706361446963903, 0.0 ], [ -120.056533375137803, 34.706101037369869, 0.0 ], [ -120.056411414405702, 34.705865986683428, 0.0 ], [ -120.056379669891996, 34.705799567289411, 0.0 ], [ -120.056260070317094, 34.705549329874472, 0.0 ], [ -120.056196764528593, 34.705416873738947, 0.0 ], [ -120.056044159045499, 34.705084184947047, 0.0 ], [ -120.055919910311403, 34.704817530611258, 0.0 ], [ -120.055777696222407, 34.704518894280277, 0.0 ], [ -120.055663635320101, 34.704272766717679, 0.0 ], [ -120.055658595505093, 34.704087864644279, 0.0 ], [ -120.055659063690896, 34.704006025059172, 0.0 ], [ -120.055660039978903, 34.703835517119579, 0.0 ], [ -120.055653932563601, 34.703612947549892, 0.0 ], [ -120.055653790175199, 34.703607771114918, 0.0 ], [ -120.055656247158097, 34.703423050881582, 0.0 ], [ -120.055641676963205, 34.703314534209852, 0.0 ], [ -120.055618368587503, 34.703221580099601, 0.0 ], [ -120.055599230781993, 34.703126474439209, 0.0 ], [ -120.055598126152404, 34.702984482300472, 0.0 ], [ -120.055606127559301, 34.702874258287309, 0.0 ], [ -120.055603290951794, 34.702684902714537, 0.0 ], [ -120.055604881945499, 34.702601565203267, 0.0 ], [ -120.055565346905993, 34.702312171862182, 0.0 ], [ -120.055577553491702, 34.702179515405113, 0.0 ], [ -120.055548395173702, 34.702097687294852, 0.0 ], [ -120.055549813768494, 34.701942235411849, 0.0 ], [ -120.055552804745105, 34.701838650572562, 0.0 ], [ -120.055557152266104, 34.701696790763663, 0.0 ], [ -120.055536389578606, 34.701569060917159, 0.0 ], [ -120.0555325130386, 34.701545216233093, 0.0 ], [ -120.055520828911995, 34.701432262882832, 0.0 ], [ -120.055507028335001, 34.701357880350912, 0.0 ], [ -120.055503970267395, 34.701296187969888, 0.0 ], [ -120.055478533089996, 34.700783018856143, 0.0 ], [ -120.055481983181593, 34.700783113586184, 0.0 ], [ -120.055480553413204, 34.700759770399017, 0.0 ], [ -120.055472154377199, 34.700631122761358, 0.0 ], [ -120.055512881484205, 34.700598306172367, 0.0 ], [ -120.055496714519904, 34.700534819197507, 0.0 ], [ -120.0554696688625, 34.700374172780897, 0.0 ], [ -120.055487236275098, 34.70016728368892, 0.0 ], [ -120.055489166608098, 34.700061856871599, 0.0 ], [ -120.055489422093899, 34.700047904646318, 0.0 ], [ -120.055497588222906, 34.699971486208561, 0.0 ], [ -120.055484786576599, 34.699890053617189, 0.0 ], [ -120.055490546887796, 34.699804563452837, 0.0 ], [ -120.055489560204904, 34.699796153206997, 0.0 ], [ -120.055468547609493, 34.699616997654168, 0.0 ], [ -120.055471176179196, 34.699504390340358, 0.0 ], [ -120.055475056876404, 34.699452655664032, 0.0 ], [ -120.055426490437796, 34.699341064012003, 0.0 ], [ -120.055439336014501, 34.699190395366841, 0.0 ], [ -120.055439163677903, 34.699118281752668, 0.0 ], [ -120.0554556248143, 34.699019529741108, 0.0 ], [ -120.055420413685098, 34.698935301601907, 0.0 ], [ -120.055430145614395, 34.698872441663873, 0.0 ], [ -120.055406199590607, 34.698797498977576, 0.0 ], [ -120.055423373836803, 34.698640175081998, 0.0 ], [ -120.055433461744798, 34.698548029644627, 0.0 ], [ -120.055429931022402, 34.698535726958262, 0.0 ], [ -120.055397642212498, 34.698423225555828, 0.0 ], [ -120.055397319315404, 34.698422195090373, 0.0 ], [ -120.055357814249405, 34.698296070240488, 0.0 ], [ -120.055385836910403, 34.698215324143654, 0.0 ], [ -120.055395039734904, 34.698188806435709, 0.0 ], [ -120.0553946076123, 34.698175414873269, 0.0 ], [ -120.055383429753206, 34.697829463873823, 0.0 ], [ -120.055381705798098, 34.697776109312848, 0.0 ], [ -120.055371065236898, 34.697672194615187, 0.0 ], [ -120.055364796707707, 34.697579652478943, 0.0 ], [ -120.055352489147097, 34.697456462148878, 0.0 ], [ -120.055345162921398, 34.697383130252938, 0.0 ], [ -120.055347194612096, 34.697306563241817, 0.0 ], [ -120.055331598848795, 34.697262057603162, 0.0 ], [ -120.055313209396999, 34.697209580397043, 0.0 ], [ -120.055302595942806, 34.697179293858852, 0.0 ], [ -120.055303665214396, 34.69709143639713, 0.0 ], [ -120.055308227367604, 34.697039717499692, 0.0 ], [ -120.055294376209105, 34.69691093779894, 0.0 ], [ -120.055281053348395, 34.696824986322781, 0.0 ], [ -120.055274097209804, 34.696694119509971, 0.0 ], [ -120.055259810872599, 34.696596876671393, 0.0 ], [ -120.055257753862193, 34.696520211572903, 0.0 ], [ -120.0552830857348, 34.696409400219103, 0.0 ], [ -120.0552819909812, 34.696390143230701, 0.0 ], [ -120.055275627321095, 34.696354313222479, 0.0 ], [ -120.055261082145705, 34.696272415411357, 0.0 ], [ -120.0552586268482, 34.696207007156893, 0.0 ], [ -120.055248597448298, 34.695939659824518, 0.0 ], [ -120.055236040474099, 34.695604922200303, 0.0 ], [ -120.055229520515098, 34.695431127380779, 0.0 ], [ -120.055219734051505, 34.695399343100448, 0.0 ], [ -120.055217517574505, 34.695327179766167, 0.0 ], [ -120.055229990005301, 34.695277879494313, 0.0 ], [ -120.055249248025206, 34.695201756306894, 0.0 ], [ -120.055217649780303, 34.695000860127088, 0.0 ], [ -120.055216240535103, 34.69496920063704, 0.0 ], [ -120.055227587803998, 34.694869979568693, 0.0 ], [ -120.055224137266805, 34.694851868722559, 0.0 ], [ -120.055227336451196, 34.694800117944183, 0.0 ], [ -120.055212644841902, 34.69467582393137, 0.0 ], [ -120.055205837725197, 34.693800975183407, 0.0 ], [ -120.055204419453403, 34.693618772258333, 0.0 ], [ -120.055185435183503, 34.693351824978222, 0.0 ], [ -120.055132503363794, 34.692607501297417, 0.0 ], [ -120.055141479234095, 34.692044508958261, 0.0 ], [ -120.055145323424995, 34.691803341238888, 0.0 ], [ -120.055116493222897, 34.691500685715717, 0.0 ], [ -120.055158657186297, 34.690715262069268, 0.0 ], [ -120.055253332898104, 34.69000807374946, 0.0 ], [ -120.055256988108994, 34.689980772033088, 0.0 ], [ -120.055296681152299, 34.689603511095548, 0.0 ], [ -120.055321784948703, 34.689364901962819, 0.0 ], [ -120.055426468958501, 34.689259268733238, 0.0 ], [ -120.0554428270556, 34.68879771337609, 0.0 ], [ -120.055403233004796, 34.688748870326258, 0.0 ], [ -120.055304948648597, 34.688627626709419, 0.0 ], [ -120.054984756878696, 34.68790554964886, 0.0 ], [ -120.054914247151402, 34.687744456254258, 0.0 ], [ -120.054785384919995, 34.687450043672968, 0.0 ], [ -120.054698420233706, 34.687055845052228, 0.0 ], [ -120.054669915286595, 34.686994885567302, 0.0 ], [ -120.054551343453497, 34.686741315434823, 0.0 ], [ -120.054389196237196, 34.686428675557814, 0.0 ], [ -120.054377672124303, 34.68629366995075, 0.0 ], [ -120.054368957507805, 34.68619157657664, 0.0 ], [ -120.0543799492537, 34.685477508446958, 0.0 ], [ -120.054399206921502, 34.685139350630728, 0.0 ], [ -120.0544178829972, 34.684811413735197, 0.0 ], [ -120.054427606538496, 34.684717461070314, 0.0 ], [ -120.054506050204694, 34.68395949945107, 0.0 ], [ -120.054508938157397, 34.683917046556353, 0.0 ], [ -120.054587670512703, 34.682759813719677, 0.0 ], [ -120.054595742919304, 34.682641164218701, 0.0 ], [ -120.054588280796594, 34.682235483559552, 0.0 ], [ -120.054588115087995, 34.682226460163648, 0.0 ], [ -120.054581063868596, 34.681843098206933, 0.0 ], [ -120.054521844216893, 34.681474358267408, 0.0 ], [ -120.054458024822793, 34.680996906103267, 0.0 ], [ -120.054442067354202, 34.680877525457362, 0.0 ], [ -120.054295374955501, 34.680148376055193, 0.0 ], [ -120.054281702102202, 34.680030675307982, 0.0 ], [ -120.054239987402894, 34.679671564251009, 0.0 ], [ -120.054147979996102, 34.679083237889699, 0.0 ], [ -120.054147808704201, 34.67908026226921, 0.0 ], [ -120.054144337924399, 34.679023644498251, 0.0 ], [ -120.054093778232996, 34.679014729494, 0.0 ], [ -120.054091545641796, 34.679016574705059, 0.0 ], [ -120.050874842091801, 34.67897526240381, 0.0 ], [ -120.0487594105402, 34.678940207106109, 0.0 ], [ -120.048729165815701, 34.678939877590132, 0.0 ], [ -120.048590373632507, 34.678939936361587, 0.0 ], [ -120.0483467621671, 34.678937987744177, 0.0 ], [ -120.048197610415002, 34.678935657585718, 0.0 ], [ -120.048094862538406, 34.678933991611153, 0.0 ], [ -120.047929968056806, 34.678932009137469, 0.0 ], [ -120.047817276985398, 34.678930347061517, 0.0 ], [ -120.047656520927305, 34.678921866921293, 0.0 ], [ -120.047582358954003, 34.678918137260602, 0.0 ], [ -120.047534712663506, 34.678915764166128, 0.0 ], [ -120.0475052958151, 34.678914067307019, 0.0 ], [ -120.047493695021402, 34.678913729756907, 0.0 ], [ -120.047443149070006, 34.678911699267267, 0.0 ], [ -120.047342883947394, 34.678906271202088, 0.0 ], [ -120.047188996021902, 34.678898593891127, 0.0 ], [ -120.047097196640195, 34.678898167583803, 0.0 ], [ -120.047048308708298, 34.678897162375968, 0.0 ], [ -120.047018220135101, 34.678896827841179, 0.0 ], [ -120.046962626420097, 34.678896110027608, 0.0 ], [ -120.046921380751201, 34.678896126876417, 0.0 ], [ -120.046806608675396, 34.678896173682858, 0.0 ], [ -120.046749220869202, 34.678893237558569, 0.0 ], [ -120.046691836158104, 34.678895480728713, 0.0 ], [ -120.046628171926898, 34.67889328674012, 0.0 ], [ -120.0465797519132, 34.678893306377219, 0.0 ], [ -120.046494570335, 34.678893340873728, 0.0 ], [ -120.0463520003144, 34.678891179531597, 0.0 ], [ -120.046256056890002, 34.678889737998631, 0.0 ], [ -120.046230054553604, 34.678890488108451, 0.0 ], [ -120.046195084666195, 34.67889050217164, 0.0 ], [ -120.045957469153706, 34.67888763796185, 0.0 ], [ -120.045889527470194, 34.678887766015528, 0.0 ], [ -120.045614148479203, 34.678878030524388, 0.0 ], [ -120.045553056057798, 34.678872996155597, 0.0 ], [ -120.044856801794296, 34.678856104133452, 0.0 ], [ -120.044229866190506, 34.678840890256453, 0.0 ], [ -120.043107077059105, 34.678849689972957, 0.0 ], [ -120.042709641963199, 34.678840040088943, 0.0 ], [ -120.042100718876696, 34.678825252046472, 0.0 ], [ -120.041960785657196, 34.678824772592613, 0.0 ], [ -120.041202520473902, 34.678822173970673, 0.0 ], [ -120.041020655889497, 34.678821549838638, 0.0 ], [ -120.040176953312795, 34.678801048631783, 0.0 ], [ -120.039194635525703, 34.67877717054283, 0.0 ], [ -120.038414809228598, 34.67877365095773, 0.0 ], [ -120.037942795574196, 34.678771518566258, 0.0 ], [ -120.037649257941098, 34.678764379011199, 0.0 ], [ -120.037620369191103, 34.67876367585329, 0.0 ], [ -120.036633924445397, 34.678739677221529, 0.0 ], [ -120.036140374615101, 34.678751011074219, 0.0 ], [ -120.0353951905157, 34.678768118835137, 0.0 ], [ -120.034254952177804, 34.678774737404467, 0.0 ], [ -120.033825723526903, 34.678777225829677, 0.0 ], [ -120.033134635493994, 34.678785179490063, 0.0 ], [ -120.032676689507994, 34.678774022230151, 0.0 ], [ -120.032257061387995, 34.678763797449157, 0.0 ], [ -120.032247801863306, 34.678774838883378, 0.0 ], [ -120.031778354740595, 34.678763398384461, 0.0 ], [ -120.031583850192106, 34.678767671862332, 0.0 ], [ -120.031488946799797, 34.678763993368797, 0.0 ], [ -120.031427221003, 34.678761600334532, 0.0 ], [ -120.0312499098481, 34.678761784724358, 0.0 ], [ -120.031072921569901, 34.678752964169753, 0.0 ], [ -120.030863668108395, 34.678750116028631, 0.0 ], [ -120.030690606789406, 34.678745896573467, 0.0 ], [ -120.030382917649703, 34.678749661248069, 0.0 ], [ -120.030224325704907, 34.678741287678243, 0.0 ], [ -120.030059761948195, 34.67872826045577, 0.0 ], [ -120.029881969074296, 34.678741951988343, 0.0 ], [ -120.029650483914295, 34.67873862272743, 0.0 ], [ -120.028755986886793, 34.678725753520837, 0.0 ], [ -120.028655147914705, 34.678723294002189, 0.0 ], [ -120.028532989370504, 34.67870679271973, 0.0 ], [ -120.028395556211194, 34.67871696018225, 0.0 ], [ -120.028329332541006, 34.678715344079272, 0.0 ], [ -120.028324015344197, 34.678715214758071, 0.0 ], [ -120.028258606179705, 34.678713618233608, 0.0 ], [ -120.028272592463296, 34.678722973434461, 0.0 ], [ -120.028285365592893, 34.67880440704063, 0.0 ], [ -120.028190888672199, 34.678871957868807, 0.0 ], [ -120.0280594950721, 34.678961140342579, 0.0 ], [ -120.027916276866705, 34.679056795856859, 0.0 ], [ -120.027786085259706, 34.679150514685666, 0.0 ], [ -120.027703350749107, 34.679213844198202, 0.0 ], [ -120.027669711359195, 34.679296398933509, 0.0 ], [ -120.027618393795294, 34.679396549938133, 0.0 ], [ -120.027515807546905, 34.67953826308139, 0.0 ], [ -120.027448681818399, 34.679737178011131, 0.0 ], [ -120.027426668402597, 34.679799736008462, 0.0 ], [ -120.027342669466904, 34.679993731392607, 0.0 ], [ -120.027296140958398, 34.680084621519782, 0.0 ], [ -120.027184302539794, 34.680303088390147, 0.0 ], [ -120.027108646843303, 34.680454473125202, 0.0 ], [ -120.027030375988105, 34.680659875900758, 0.0 ], [ -120.027054861266507, 34.68068075406903, 0.0 ], [ -120.0269391626302, 34.680841841818868, 0.0 ], [ -120.026937158959896, 34.68084463239768, 0.0 ], [ -120.026894894496706, 34.680958524148593, 0.0 ], [ -120.026790694542001, 34.681145265940977, 0.0 ], [ -120.026751829755995, 34.681297548052633, 0.0 ], [ -120.026742434537496, 34.681317239554367, 0.0 ], [ -120.0266699959449, 34.681469061850919, 0.0 ], [ -120.026642077466505, 34.681601331306688, 0.0 ], [ -120.026593065672301, 34.681789420370187, 0.0 ], [ -120.026516298583502, 34.68204866484443, 0.0 ], [ -120.026470506815798, 34.682203306903048, 0.0 ], [ -120.026451320543302, 34.682358322983248, 0.0 ], [ -120.026468546059206, 34.682410571551927, 0.0 ], [ -120.026450272950697, 34.682456997628996, 0.0 ], [ -120.026401780925099, 34.682580200419878, 0.0 ], [ -120.026393789287098, 34.682670141459838, 0.0 ], [ -120.026359179995495, 34.68277971212202, 0.0 ], [ -120.0263181083739, 34.682936447537323, 0.0 ], [ -120.026137616604402, 34.683635100925422, 0.0 ], [ -120.026115480923494, 34.683684536796576, 0.0 ], [ -120.026036809998303, 34.6838602328462, 0.0 ], [ -120.026042130321699, 34.683921204858017, 0.0 ], [ -120.0259954524265, 34.684044001492182, 0.0 ], [ -120.025947229641403, 34.684286190775261, 0.0 ], [ -120.025734917613207, 34.684918159544793, 0.0 ], [ -120.025716710459506, 34.684972354775311, 0.0 ], [ -120.025666243374999, 34.685200969421778, 0.0 ], [ -120.025633954870102, 34.68532186434598, 0.0 ], [ -120.025590037400406, 34.685462755582193, 0.0 ], [ -120.025554414797099, 34.685619623356217, 0.0 ], [ -120.025472302717105, 34.685951120708587, 0.0 ], [ -120.025453729225404, 34.68603178895367, 0.0 ], [ -120.025459399862498, 34.686140090614337, 0.0 ], [ -120.025451354860706, 34.686288618797953, 0.0 ], [ -120.0254246258026, 34.686463731318831, 0.0 ], [ -120.025402952246694, 34.686611926431937, 0.0 ], [ -120.025406864790199, 34.686693143703003, 0.0 ], [ -120.025392785374194, 34.686776981163923, 0.0 ], [ -120.025380860514701, 34.686847992899366, 0.0 ], [ -120.025378359439699, 34.687546486005679, 0.0 ], [ -120.025287445804594, 34.688999960030202, 0.0 ], [ -120.025228025954206, 34.689816977598412, 0.0 ], [ -120.025226434363702, 34.689838863500867, 0.0 ], [ -120.025198778154703, 34.690219135599783, 0.0 ], [ -120.025187501135505, 34.69028646226959, 0.0 ], [ -120.025179662569499, 34.690356649436559, 0.0 ], [ -120.0251784659321, 34.690367364091948, 0.0 ], [ -120.025168865765806, 34.690464025458247, 0.0 ], [ -120.025162592505893, 34.690563022117843, 0.0 ], [ -120.025163750345101, 34.690587837125747, 0.0 ], [ -120.025167907593499, 34.69059144701847, 0.0 ], [ -120.025235850149997, 34.690650440099247, 0.0 ], [ -120.025339171999093, 34.69073634059599, 0.0 ], [ -120.025450509691595, 34.690826942810837, 0.0 ], [ -120.025553509538398, 34.690921847654408, 0.0 ], [ -120.025584152140198, 34.690949592119928, 0.0 ], [ -120.025623390011404, 34.690974633766807, 0.0 ], [ -120.025798526128298, 34.691126194196407, 0.0 ], [ -120.026023950487797, 34.691317786994048, 0.0 ], [ -120.026303129191007, 34.691550842576753, 0.0 ], [ -120.026443589838493, 34.691678096437137, 0.0 ], [ -120.026540695640406, 34.691758163888302, 0.0 ], [ -120.026667276817093, 34.691853956796898, 0.0 ], [ -120.026708897778207, 34.691896852394173, 0.0 ], [ -120.026741847916696, 34.691935459916863, 0.0 ], [ -120.026743598148798, 34.691982654842583, 0.0 ], [ -120.026752284444896, 34.692038430103928, 0.0 ], [ -120.026750572463797, 34.69209992758163, 0.0 ], [ -120.026748852053601, 34.692139973784073, 0.0 ], [ -120.026741928579796, 34.692171439244909, 0.0 ], [ -120.026724641855694, 34.692314460753309, 0.0 ], [ -120.026707384850994, 34.692544723330663, 0.0 ], [ -120.026708814710602, 34.692629111848063, 0.0 ], [ -120.026689380746802, 34.692630765904951, 0.0 ], [ -120.026691547570707, 34.692756392811887, 0.0 ], [ -120.026702136692904, 34.693370296621552, 0.0 ], [ -120.0267036841433, 34.693460037273901, 0.0 ], [ -120.026706225334905, 34.69360734497117, 0.0 ], [ -120.026713758747505, 34.694044099522863, 0.0 ], [ -120.026719182829197, 34.694197463193923, 0.0 ], [ -120.026716069525193, 34.694341604555383, 0.0 ], [ -120.026711071982803, 34.694481193208567, 0.0 ], [ -120.026713250074394, 34.69462997111296, 0.0 ], [ -120.026717793753406, 34.694769792645353, 0.0 ], [ -120.026726829579104, 34.694898456427133, 0.0 ], [ -120.026703125540195, 34.695179552962372, 0.0 ], [ -120.026708747590106, 34.695346441563863, 0.0 ], [ -120.026690443931102, 34.695686257043683, 0.0 ], [ -120.026696212909798, 34.695925258537542, 0.0 ], [ -120.026707607873902, 34.696083274576793, 0.0 ], [ -120.026708982105802, 34.696110095684361, 0.0 ], [ -120.026715236529199, 34.69623218522819, 0.0 ], [ -120.026707967529305, 34.696301862977137, 0.0 ], [ -120.026761653462501, 34.696688504299082, 0.0 ], [ -120.026761419615298, 34.69679661972058, 0.0 ], [ -120.026760914193503, 34.697030265714041, 0.0 ], [ -120.026759766528301, 34.697560522807571, 0.0 ], [ -120.026774806439605, 34.698169307588152, 0.0 ], [ -120.026788265093799, 34.69869478329143, 0.0 ], [ -120.026790167853804, 34.698769086632758, 0.0 ], [ -120.026787032942295, 34.698856654977007, 0.0 ], [ -120.026764455524201, 34.699487291709467, 0.0 ], [ -120.026750721318805, 34.699870915180149, 0.0 ], [ -120.026750027902494, 34.699890297115253, 0.0 ], [ -120.026749398284096, 34.699952529924097, 0.0 ], [ -120.026741161381594, 34.700766652464281, 0.0 ], [ -120.026741245497305, 34.700808248359479, 0.0 ], [ -120.0267419675356, 34.701163269241263, 0.0 ], [ -120.026784237931906, 34.702345080701583, 0.0 ], [ -120.026770158511397, 34.702879597615457, 0.0 ], [ -120.026763358624194, 34.703137765952249, 0.0 ], [ -120.026759290535296, 34.704070572600763, 0.0 ], [ -120.0267422017576, 34.704547809145339, 0.0 ], [ -120.026731396209399, 34.704849566538478, 0.0 ], [ -120.026727387477294, 34.705187138824989, 0.0 ], [ -120.026722705636203, 34.705581422870587, 0.0 ], [ -120.026716844251197, 34.706075057670617, 0.0 ], [ -120.026740747319593, 34.706829860162983, 0.0 ], [ -120.026743898501294, 34.706929343306477, 0.0 ], [ -120.026744696792804, 34.706954561605009, 0.0 ], [ -120.026747690841901, 34.707303567445351, 0.0 ], [ -120.026749047928803, 34.707461681457339, 0.0 ], [ -120.026746749398498, 34.708344956077539, 0.0 ], [ -120.026742762656099, 34.708574668941459, 0.0 ], [ -120.026737066378004, 34.708902961363201, 0.0 ], [ -120.026726228507599, 34.709527486048962, 0.0 ], [ -120.0267045353567, 34.71063749037787, 0.0 ], [ -120.026700830678195, 34.710827073797297, 0.0 ], [ -120.026701782590095, 34.710876671642403, 0.0 ], [ -120.026707135178796, 34.710890883616273, 0.0 ], [ -120.026708635128699, 34.710894866968488, 0.0 ], [ -120.026708223885294, 34.710944430893584, 0.0 ], [ -120.026712621540796, 34.711012140165657, 0.0 ], [ -120.0267195097437, 34.711048363029953, 0.0 ], [ -120.026697925057206, 34.711117690910022, 0.0 ], [ -120.026727482628502, 34.711282910278612, 0.0 ], [ -120.026721941144999, 34.711323335933287, 0.0 ], [ -120.026718290864594, 34.711330006910067, 0.0 ], [ -120.026708938970998, 34.71138160708356, 0.0 ], [ -120.026697145320199, 34.711406106597593, 0.0 ], [ -120.026711568815998, 34.711460539922633, 0.0 ], [ -120.026727486063294, 34.711663733661183, 0.0 ], [ -120.026719650855, 34.711749171473848, 0.0 ], [ -120.026718615085699, 34.711911390713126, 0.0 ], [ -120.026730385059906, 34.71280176820531, 0.0 ], [ -120.026715227628102, 34.712805904968043, 0.0 ], [ -120.026710170764503, 34.712832821749977, 0.0 ], [ -120.026709202388304, 34.712859839380847, 0.0 ], [ -120.026708351905199, 34.712902633202148, 0.0 ], [ -120.026703330680306, 34.712947578392018, 0.0 ], [ -120.026707312917793, 34.712978772252498, 0.0 ], [ -120.026710256882694, 34.713001828700882, 0.0 ], [ -120.026702553671797, 34.713026428127257, 0.0 ], [ -120.026703953608404, 34.713044488651107, 0.0 ], [ -120.026702545996898, 34.713064735362288, 0.0 ], [ -120.026704018321695, 34.713118852701037, 0.0 ], [ -120.026674172695394, 34.713190231865667, 0.0 ], [ -120.026683340559799, 34.71325805790795, 0.0 ], [ -120.026701437292999, 34.713429403800653, 0.0 ], [ -120.026702190139403, 34.713436535892853, 0.0 ], [ -120.026675471591901, 34.713706290759113, 0.0 ], [ -120.026694028451502, 34.713740545108109, 0.0 ], [ -120.026701724060104, 34.713754252909197, 0.0 ], [ -120.0266391890503, 34.71388116893128, 0.0 ], [ -120.026645799461605, 34.71390611816166, 0.0 ], [ -120.026648284603098, 34.713912939046118, 0.0 ], [ -120.026716109651801, 34.714000224843431, 0.0 ], [ -120.026716424415397, 34.71402952587686, 0.0 ], [ -120.026698181142194, 34.714024573475307, 0.0 ], [ -120.026659861373304, 34.714161094433358, 0.0 ], [ -120.026700266006202, 34.714423475161801, 0.0 ], [ -120.0267381122394, 34.714642979072472, 0.0 ], [ -120.0267223145743, 34.714836384334113, 0.0 ], [ -120.026707024597897, 34.714901359267166, 0.0 ], [ -120.026685511217394, 34.715006743653163, 0.0 ], [ -120.026687254997199, 34.715110441589708, 0.0 ], [ -120.026685831978, 34.715207303484178, 0.0 ], [ -120.0266941939894, 34.715297643441318, 0.0 ], [ -120.026687978048002, 34.715356719988108, 0.0 ], [ -120.026685916953497, 34.715376309166643, 0.0 ], [ -120.026670143176503, 34.715454792845648, 0.0 ], [ -120.026616797993398, 34.715534612214, 0.0 ], [ -120.026607267768497, 34.715667329095929, 0.0 ], [ -120.026609384457501, 34.715689059588897, 0.0 ], [ -120.026622232586206, 34.715820925347792, 0.0 ], [ -120.026636289962497, 34.715904644288251, 0.0 ], [ -120.0266388600417, 34.716080471634847, 0.0 ], [ -120.026640727189601, 34.716161639389988, 0.0 ], [ -120.026636900036905, 34.716249428107609, 0.0 ], [ -120.026635396868002, 34.716348541212049, 0.0 ], [ -120.026637300744497, 34.716447736398948, 0.0 ], [ -120.026637320964298, 34.71654237987957, 0.0 ], [ -120.026641350897293, 34.716639373712901, 0.0 ], [ -120.026641254328098, 34.716718240140011, 0.0 ], [ -120.026642162934394, 34.716788117375472, 0.0 ], [ -120.026647365898498, 34.716833312278958, 0.0 ], [ -120.026647430561098, 34.716907676070761, 0.0 ], [ -120.026673487220407, 34.71694211326426, 0.0 ], [ -120.026682207495696, 34.717041475279103, 0.0 ], [ -120.026667957872704, 34.71711548923372, 0.0 ], [ -120.026660524571597, 34.717189670065267, 0.0 ], [ -120.0266675679201, 34.717259697195111, 0.0 ], [ -120.026666772546207, 34.71731054647119, 0.0 ], [ -120.026666510622405, 34.717327273111472, 0.0 ], [ -120.026661570248606, 34.717369966807439, 0.0 ], [ -120.026651748222307, 34.71735845948298, 0.0 ], [ -120.026650216022304, 34.717401237069637, 0.0 ], [ -120.026646682247701, 34.71742368413301, 0.0 ], [ -120.026689729000196, 34.717517124789268, 0.0 ], [ -120.026681299277698, 34.717561986797648, 0.0 ], [ -120.026681129274493, 34.717604797393093, 0.0 ], [ -120.026663442313705, 34.717622392011457, 0.0 ], [ -120.026654089631293, 34.717673991882933, 0.0 ], [ -120.026658529861805, 34.717721421099753, 0.0 ], [ -120.026660933966198, 34.717730493269237, 0.0 ], [ -120.026667903896396, 34.717764464604549, 0.0 ], [ -120.026672462034796, 34.717827670837679, 0.0 ], [ -120.026661959401594, 34.717816147460979, 0.0 ], [ -120.026676617660996, 34.717902134510851, 0.0 ], [ -120.026659927031901, 34.717949047911659, 0.0 ], [ -120.026657865620905, 34.718025612960993, 0.0 ], [ -120.026654199624303, 34.718108898912952, 0.0 ], [ -120.026654144142299, 34.718109570078553, 0.0 ], [ -120.026651787809001, 34.718138133803478, 0.0 ], [ -120.026657914900298, 34.718176591685051, 0.0 ], [ -120.0266590281026, 34.71822168658057, 0.0 ], [ -120.026661702555302, 34.71828034019704, 0.0 ], [ -120.026667821970307, 34.718357105122379, 0.0 ], [ -120.026670335206305, 34.71842026134653, 0.0 ], [ -120.026671044803294, 34.718476612769223, 0.0 ], [ -120.026673037627205, 34.718535250314069, 0.0 ], [ -120.026670823768399, 34.718578009995532, 0.0 ], [ -120.026673587091906, 34.718596105245787, 0.0 ], [ -120.0266709514936, 34.718632220163428, 0.0 ], [ -120.026665544381999, 34.718706324748773, 0.0 ], [ -120.026664818306699, 34.718726587412142, 0.0 ], [ -120.026665644704593, 34.718798715826097, 0.0 ], [ -120.026676330058507, 34.718900379854588, 0.0 ], [ -120.026707241326093, 34.718987437787924, 0.0 ], [ -120.026711035532998, 34.718998123090799, 0.0 ], [ -120.026769833636493, 34.719128003031983, 0.0 ], [ -120.026827978347299, 34.719314201291837, 0.0 ], [ -120.026857742704195, 34.719454638068449, 0.0 ], [ -120.026895151438495, 34.719667370944393, 0.0 ], [ -120.026883403275093, 34.719681482292799, 0.0 ], [ -120.026860215953803, 34.719709331951073, 0.0 ], [ -120.026853617864802, 34.719817333964727, 0.0 ], [ -120.026835752908497, 34.719916046075241, 0.0 ], [ -120.026821162791904, 34.719928432902321, 0.0 ], [ -120.026793633137899, 34.719972298401693, 0.0 ], [ -120.026750287479203, 34.719996143833768, 0.0 ], [ -120.026631814654294, 34.720084363349052, 0.0 ], [ -120.026516233134402, 34.720172582068336, 0.0 ], [ -120.026224382470204, 34.72038240317849, 0.0 ], [ -120.025909413988003, 34.720608913807389, 0.0 ], [ -120.025542437804106, 34.72089979081661, 0.0 ], [ -120.025215910886402, 34.721150137319192, 0.0 ], [ -120.024883214197004, 34.721393883472132, 0.0 ], [ -120.024819916007004, 34.721392335938141, 0.0 ], [ -120.024810973065598, 34.721394370238507, 0.0 ], [ -120.024733018901202, 34.72139922562279, 0.0 ], [ -120.024619535510894, 34.721405465100993, 0.0 ], [ -120.024513711844193, 34.721407384948193, 0.0 ], [ -120.024401671902993, 34.72141140595317, 0.0 ], [ -120.024283578141393, 34.721413025498123, 0.0 ], [ -120.0241735030515, 34.721419348498237, 0.0 ], [ -120.024056009706001, 34.721423236082423, 0.0 ], [ -120.023944813873001, 34.721422770116, 0.0 ], [ -120.023833455551895, 34.721426807541818, 0.0 ], [ -120.023718689955601, 34.721430761781413, 0.0 ], [ -120.023605529259697, 34.721427995061362, 0.0 ], [ -120.023487435456502, 34.721429613788487, 0.0 ], [ -120.023375315265099, 34.721435885092177, 0.0 ], [ -120.023278514681607, 34.721433518314811, 0.0 ], [ -120.023177543905504, 34.721433301780458, 0.0 ], [ -120.023090808049801, 34.721435687625849, 0.0 ], [ -120.023000143607106, 34.721433469827652, 0.0 ], [ -120.022896284696699, 34.72143769042539, 0.0 ], [ -120.022631335902901, 34.72144452284644, 0.0 ], [ -120.022627214256005, 34.721444629059718, 0.0 ], [ -120.0225610899749, 34.721443011470917, 0.0 ], [ -120.022467976289406, 34.721452000598497, 0.0 ], [ -120.022381840775694, 34.721456654190817, 0.0 ], [ -120.022290413368296, 34.72145667014744, 0.0 ], [ -120.022211938804901, 34.721457004241117, 0.0 ], [ -120.022122394914604, 34.721461573615223, 0.0 ], [ -120.021912793407196, 34.721465458673919, 0.0 ], [ -120.021851683634793, 34.721457203888221, 0.0 ], [ -120.021719990832693, 34.721476515635153, 0.0 ], [ -120.021635022583098, 34.721467676066979, 0.0 ], [ -120.0213992391609, 34.721459652863629, 0.0 ], [ -120.021295298811296, 34.721466123312617, 0.0 ], [ -120.021240116759103, 34.721482799675243, 0.0 ], [ -120.020570087343302, 34.721502455114809, 0.0 ], [ -120.020463096999904, 34.721517862920948, 0.0 ], [ -120.020449462481807, 34.721517529320558, 0.0 ], [ -120.020407359365393, 34.721511991924473, 0.0 ], [ -120.020405034763897, 34.721512211249177, 0.0 ], [ -120.020350536619205, 34.7215173612895, 0.0 ], [ -120.020292270267902, 34.721524947930362, 0.0 ], [ -120.020236290780304, 34.721525830740951, 0.0 ], [ -120.020149357890105, 34.7215146895904, 0.0 ], [ -120.019958727483001, 34.721503261922948, 0.0 ], [ -120.019827843369399, 34.721500057635801, 0.0 ], [ -120.019603880294397, 34.721523868278076, 0.0 ], [ -120.019367819923303, 34.721504567427303, 0.0 ], [ -120.019321303550399, 34.721507934608617, 0.0 ], [ -120.019243771484, 34.72151192226184, 0.0 ], [ -120.018341775421604, 34.721558306081967, 0.0 ], [ -120.018294611013602, 34.721579684110459, 0.0 ], [ -120.018039623630003, 34.721688359792267, 0.0 ], [ -120.017961495057804, 34.721736020103357, 0.0 ], [ -120.017827223853899, 34.721789065486512, 0.0 ], [ -120.017765016709603, 34.721830355819748, 0.0 ], [ -120.017693588477897, 34.721862406381227, 0.0 ], [ -120.017682161777699, 34.721857619998538, 0.0 ], [ -120.017692847958003, 34.721920975853031, 0.0 ], [ -120.017703210652996, 34.721993338680228, 0.0 ], [ -120.017715018139498, 34.722063482429277, 0.0 ], [ -120.0177292745052, 34.722122419838172, 0.0 ], [ -120.017745253515102, 34.722190412549402, 0.0 ], [ -120.017763553251399, 34.722269729766481, 0.0 ], [ -120.0177740310708, 34.722357868627988, 0.0 ], [ -120.017788229852101, 34.722475392467402, 0.0 ], [ -120.017799874648006, 34.72255003876262, 0.0 ], [ -120.017842010397004, 34.722706555209868, 0.0 ], [ -120.017833988149206, 34.722967750844496, 0.0 ], [ -120.017734666068506, 34.723073479938662, 0.0 ], [ -120.017707696946999, 34.723140420686292, 0.0 ], [ -120.017646365670203, 34.723195252676327, 0.0 ], [ -120.017562100180996, 34.72324276224505, 0.0 ], [ -120.017511433598798, 34.723304614824919, 0.0 ], [ -120.017453072002098, 34.723352759980777, 0.0 ], [ -120.017385605195997, 34.723407440504573, 0.0 ], [ -120.017236922634694, 34.723500693198453, 0.0 ], [ -120.0171899062005, 34.723555875021212, 0.0 ], [ -120.017114178421295, 34.723612606993747, 0.0 ], [ -120.017046109815396, 34.723665020802009, 0.0 ], [ -120.016961195171106, 34.723730541129953, 0.0 ], [ -120.016877887015795, 34.723789340654513, 0.0 ], [ -120.016803440715805, 34.723848356831972, 0.0 ], [ -120.016732564571598, 34.723902954565553, 0.0 ], [ -120.016659562891505, 34.723959753389209, 0.0 ], [ -120.016592095006899, 34.724014434317901, 0.0 ], [ -120.016131063034507, 34.724350153674337, 0.0 ], [ -120.016090748680398, 34.724389725574483, 0.0 ], [ -120.0159943925498, 34.724488765447759, 0.0 ], [ -120.015869416789599, 34.724548796072852, 0.0 ], [ -120.015443781784001, 34.724905660959983, 0.0 ], [ -120.015428783297196, 34.724905293616047, 0.0 ], [ -120.0153502116044, 34.724946181128637, 0.0 ], [ -120.015219409812403, 34.725035362164689, 0.0 ], [ -120.015120730288999, 34.725123077614342, 0.0 ], [ -120.0150572701274, 34.725180109229349, 0.0 ], [ -120.014986553471104, 34.725230202348541, 0.0 ], [ -120.014928060993796, 34.725300876017592, 0.0 ], [ -120.014856662442099, 34.725350952924188, 0.0 ], [ -120.014698287795596, 34.725504804948592, 0.0 ], [ -120.014545540656002, 34.72561598091265, 0.0 ], [ -120.014344149524803, 34.725732722907807, 0.0 ], [ -120.014276645703106, 34.725769374186747, 0.0 ], [ -120.014208249395296, 34.725830791345913, 0.0 ], [ -120.014149365227297, 34.725874414213372, 0.0 ], [ -120.013957353695304, 34.725995892923308, 0.0 ], [ -120.013854061557396, 34.726078987208233, 0.0 ], [ -120.013795128142704, 34.726142889363842, 0.0 ], [ -120.013709121942298, 34.726219647419832, 0.0 ], [ -120.013707465992496, 34.726221078197852, 0.0 ], [ -120.013634972252802, 34.726283734174217, 0.0 ], [ -120.013633065067495, 34.726285382991222, 0.0 ], [ -120.013559099939101, 34.726330889240757, 0.0 ], [ -120.013488057274998, 34.726389986513347, 0.0 ], [ -120.013405912503899, 34.726435291824153, 0.0 ], [ -120.013344852855099, 34.72650139570024, 0.0 ], [ -120.013281714310594, 34.726549420236758, 0.0 ], [ -120.013212278242506, 34.72660179755885, 0.0 ], [ -120.013149057977401, 34.726652073299313, 0.0 ], [ -120.012929403386096, 34.726802165861997, 0.0 ], [ -120.012271490326498, 34.727317815025991, 0.0 ], [ -120.0121691189469, 34.727394170002952, 0.0 ], [ -120.012165209298701, 34.727445901886412, 0.0 ], [ -120.012161445833797, 34.727531437936698, 0.0 ], [ -120.012156457821206, 34.727568756034209, 0.0 ], [ -120.012153040085906, 34.727594325740867, 0.0 ], [ -120.012147402278401, 34.72767546574007, 0.0 ], [ -120.0121303754172, 34.727920509076192, 0.0 ], [ -120.012118365504307, 34.727969788723613, 0.0 ], [ -120.012098369234906, 34.728032392143902, 0.0 ], [ -120.012066784669898, 34.728094712099079, 0.0 ], [ -120.012042131192999, 34.728172974875712, 0.0 ], [ -120.012000075827203, 34.728241796562109, 0.0 ], [ -120.0119862309312, 34.728266243953257, 0.0 ], [ -120.011961186434306, 34.728317457287361, 0.0 ], [ -120.011948023241601, 34.728341920816909, 0.0 ], [ -120.011910578803196, 34.728415363431921, 0.0 ], [ -120.011872370967495, 34.72849104026016, 0.0 ], [ -120.011840022708398, 34.728555593456349, 0.0 ], [ -120.011811407262201, 34.728611225866707, 0.0 ], [ -120.011546157937602, 34.729136509755257, 0.0 ], [ -120.0114613558803, 34.729289339507723, 0.0 ], [ -120.011393695655698, 34.729415168501838, 0.0 ], [ -120.011390535242896, 34.729416973251013, 0.0 ], [ -120.011044101686906, 34.730041305750298, 0.0 ], [ -120.011625176773407, 34.73050399638926, 0.0 ], [ -120.012306043247193, 34.731057016561508, 0.0 ], [ -120.012452026103304, 34.731179536565307, 0.0 ], [ -120.013247970111095, 34.731847545416983, 0.0 ], [ -120.013722152754198, 34.732245502641753, 0.0 ], [ -120.013852477175405, 34.732356588831252, 0.0 ], [ -120.015946055118107, 34.734141062806827, 0.0 ], [ -120.016458679897298, 34.734564366369177, 0.0 ], [ -120.017149243375499, 34.735134593334912, 0.0 ], [ -120.017786263360904, 34.735660595445978, 0.0 ], [ -120.018091933142202, 34.735912989910929, 0.0 ], [ -120.019267287863102, 34.736836376257607, 0.0 ], [ -120.019875162674495, 34.737315460365011, 0.0 ], [ -120.020860685194506, 34.738110247068533, 0.0 ], [ -120.020970113419395, 34.738198554657679, 0.0 ], [ -120.021008607885904, 34.73822879039102, 0.0 ], [ -120.021088807335701, 34.738294142084939, 0.0 ], [ -120.021151156727498, 34.738344949022903, 0.0 ], [ -120.021328514285401, 34.738479986632981, 0.0 ], [ -120.021367009029404, 34.738510223139428, 0.0 ], [ -120.021497908026006, 34.738610773385979, 0.0 ], [ -120.022794190639303, 34.739606490853923, 0.0 ], [ -120.024112383074794, 34.74067729812846, 0.0 ], [ -120.024638963666902, 34.741105042460298, 0.0 ], [ -120.024699916862701, 34.741156107091129, 0.0 ], [ -120.024753692625396, 34.741197982687332, 0.0 ], [ -120.0247802396064, 34.741218911990707, 0.0 ], [ -120.024829323781603, 34.741258420206456, 0.0 ], [ -120.024888913531498, 34.741309450791753, 0.0 ], [ -120.024949867050395, 34.741360516181473, 0.0 ], [ -120.025010900787606, 34.741409329376573, 0.0 ], [ -120.025075865403593, 34.741462745059287, 0.0 ], [ -120.025148929948401, 34.741518612866237, 0.0 ], [ -120.025206635923794, 34.741565090756183, 0.0 ], [ -120.025272883273999, 34.741620791512723, 0.0 ], [ -120.025317823099002, 34.741656141160348, 0.0 ], [ -120.025337928374697, 34.741671955778408, 0.0 ], [ -120.025404257129793, 34.74172540519502, 0.0 ], [ -120.025474595851193, 34.741781205819521, 0.0 ], [ -120.025545777863201, 34.741832519944857, 0.0 ], [ -120.025614751989295, 34.741888287449648, 0.0 ], [ -120.025678433835495, 34.741939418482303, 0.0 ], [ -120.025741353795297, 34.741992783771991, 0.0 ], [ -120.025797696770596, 34.742039229219692, 0.0 ], [ -120.025853958604401, 34.742087924995403, 0.0 ], [ -120.025919363686896, 34.742148111807403, 0.0 ], [ -120.025985692150996, 34.742201560865738, 0.0 ], [ -120.026065775580904, 34.742271119482787, 0.0 ], [ -120.026125447018401, 34.742319899023258, 0.0 ], [ -120.026173930816896, 34.742357137505437, 0.0 ], [ -120.026243068248704, 34.742408402090668, 0.0 ], [ -120.026296845699804, 34.742450276917587, 0.0 ], [ -120.026349861251603, 34.742494386916327, 0.0 ], [ -120.026400309639996, 34.74253392743524, 0.0 ], [ -120.026511032840105, 34.742624514573599, 0.0 ], [ -120.026566093109395, 34.742668674442399, 0.0 ], [ -120.026629776213696, 34.742719804911928, 0.0 ], [ -120.026680907840003, 34.742759362257821, 0.0 ], [ -120.026724179768806, 34.742789712857252, 0.0 ], [ -120.026808031978106, 34.742868376796203, 0.0 ], [ -120.026938404507405, 34.742981978480749, 0.0 ], [ -120.026986207243894, 34.743019200542342, 0.0 ], [ -120.027041349234693, 34.743061108910439, 0.0 ], [ -120.027055765747605, 34.743071477071332, 0.0 ], [ -120.027054093383697, 34.743076324067999, 0.0 ], [ -120.027221802092697, 34.743138255258373, 0.0 ], [ -120.027412599418199, 34.743085772942678, 0.0 ], [ -120.027580273115106, 34.743047596938439, 0.0 ], [ -120.027765285037006, 34.742985580763403, 0.0 ], [ -120.027967625354194, 34.74287588948976, 0.0 ], [ -120.028239365451, 34.742799550335, 0.0 ], [ -120.028453304571997, 34.742785196524743, 0.0 ], [ -120.028690378295295, 34.742785137635252, 0.0 ], [ -120.028910114028307, 34.742808918361511, 0.0 ], [ -120.028928277094295, 34.742808913794931, 0.0 ], [ -120.028961158619197, 34.742834433973528, 0.0 ], [ -120.0290202654528, 34.742813312023507, 0.0 ], [ -120.029031547007307, 34.742823188862708, 0.0 ], [ -120.029100943131297, 34.742847006170052, 0.0 ], [ -120.029216600003593, 34.74287557902263, 0.0 ], [ -120.029453672907806, 34.742875518559863, 0.0 ], [ -120.029598224728403, 34.742861180367669, 0.0 ], [ -120.029852629119603, 34.742818211362078, 0.0 ], [ -120.030043441477702, 34.742808627922997, 0.0 ], [ -120.030199568288793, 34.742822888123747, 0.0 ], [ -120.030384608004994, 34.742841906906428, 0.0 ], [ -120.030540737899898, 34.742860933971812, 0.0 ], [ -120.030719999989202, 34.742889488405957, 0.0 ], [ -120.030962876343196, 34.742941861195803, 0.0 ], [ -120.031309852402501, 34.743037107532139, 0.0 ], [ -120.031483330604203, 34.743060895919022, 0.0 ], [ -120.031650994538694, 34.743003644667411, 0.0 ], [ -120.031720426980897, 34.742963796006158, 0.0 ], [ -120.031783955702807, 34.7429273361508, 0.0 ], [ -120.031992070055097, 34.742808102435582, 0.0 ], [ -120.032130801426007, 34.742703188822098, 0.0 ], [ -120.032234846761398, 34.742617353176932, 0.0 ], [ -120.032419826294898, 34.742488590473648, 0.0 ], [ -120.032558604173403, 34.742498085934741, 0.0 ], [ -120.032628011031306, 34.742545735968427, 0.0 ], [ -120.032674307618805, 34.74263629669484, 0.0 ], [ -120.032681184029798, 34.742670243499489, 0.0 ], [ -120.032697483771102, 34.742750699717092, 0.0 ], [ -120.032726449708505, 34.742879401260851, 0.0 ], [ -120.032738053820594, 34.74297473822768, 0.0 ], [ -120.032772783485498, 34.743060535743602, 0.0 ], [ -120.032790180338395, 34.74317970677653, 0.0 ], [ -120.032905857110606, 34.743251179149389, 0.0 ], [ -120.033027289492097, 34.743260678098864, 0.0 ], [ -120.033258577930297, 34.743251077699689, 0.0 ], [ -120.033403131783999, 34.743241501155723, 0.0 ], [ -120.033565036599398, 34.743241454022822, 0.0 ], [ -120.033732744650607, 34.743289075530647, 0.0 ], [ -120.033952509156293, 34.743374817350023, 0.0 ], [ -120.0340334788512, 34.743412930232623, 0.0 ], [ -120.034287911871502, 34.743436689497948, 0.0 ], [ -120.034420904780902, 34.743436649775347, 0.0 ], [ -120.034605931187997, 34.7434175258498, 0.0 ], [ -120.034756275248299, 34.74342701517088, 0.0 ], [ -120.034906639594595, 34.743479406624218, 0.0 ], [ -120.035201560442104, 34.743526987302779, 0.0 ], [ -120.035351896162098, 34.743517407442937, 0.0 ], [ -120.035525347423302, 34.743474449865573, 0.0 ], [ -120.0355570169326, 34.743441353464362, 0.0 ], [ -120.035589225398297, 34.743444857739732, 0.0 ], [ -120.035669876393598, 34.743412434393797, 0.0 ], [ -120.035878010175495, 34.743345630686271, 0.0 ], [ -120.036062998625795, 34.743245465268188, 0.0 ], [ -120.036340487075407, 34.743111900860889, 0.0 ], [ -120.0365717300635, 34.743006952650788, 0.0 ], [ -120.036808788740103, 34.742973507531943, 0.0 ], [ -120.036988057888394, 34.743011586848013, 0.0 ], [ -120.0370420959988, 34.743023235538978, 0.0 ], [ -120.037230938820798, 34.743063945493127, 0.0 ], [ -120.0375374237355, 34.743111516455443, 0.0 ], [ -120.037797651022501, 34.743159101809667, 0.0 ], [ -120.038057868250306, 34.743187618166523, 0.0 ], [ -120.038277610297698, 34.743216147411097, 0.0 ], [ -120.038532055716004, 34.743263733023262, 0.0 ], [ -120.038757600998494, 34.74333516264673, 0.0 ], [ -120.038983138276805, 34.743387523419557, 0.0 ], [ -120.039301187397797, 34.743430318421353, 0.0 ], [ -120.039584550196196, 34.743487426464348, 0.0 ], [ -120.039804293643598, 34.743515952783952, 0.0 ], [ -120.040064527450497, 34.743573066741192, 0.0 ], [ -120.040214898088294, 34.743630218571973, 0.0 ], [ -120.040301669909098, 34.7437016935814, 0.0 ], [ -120.0405156809327, 34.743825561644186, 0.0 ], [ -120.040677619200295, 34.743887475205653, 0.0 ], [ -120.040770154559297, 34.743920811913057, 0.0 ], [ -120.040914716216406, 34.743925527904253, 0.0 ], [ -120.041047704947303, 34.743915945870647, 0.0 ], [ -120.041331056752398, 34.743944447445053, 0.0 ], [ -120.041435171965702, 34.744006380697293, 0.0 ], [ -120.041579761712597, 34.744063532803999, 0.0 ], [ -120.041741670770904, 34.744068241482637, 0.0 ], [ -120.0419555801803, 34.743996658294719, 0.0 ], [ -120.041985405947202, 34.743935108207253, 0.0 ], [ -120.042036443099704, 34.743829782315501, 0.0 ], [ -120.042123083233705, 34.743653370387619, 0.0 ], [ -120.042290689066505, 34.743500764355773, 0.0 ], [ -120.042458304601098, 34.743367225561322, 0.0 ], [ -120.042620103110195, 34.74317171700438, 0.0 ], [ -120.042793462399899, 34.742971436555258, 0.0 ], [ -120.042943743744999, 34.742866505610422, 0.0 ], [ -120.043198111837597, 34.742771070071917, 0.0 ], [ -120.043516100815907, 34.742704211186187, 0.0 ], [ -120.0438514322543, 34.742632578376679, 0.0 ], [ -120.044024865048897, 34.742570540429767, 0.0 ], [ -120.044094653400506, 34.742551681298067, 0.0 ], [ -120.044105801166694, 34.74254190723893, 0.0 ], [ -120.044198187063301, 34.742313054292019, 0.0 ], [ -120.044388804239105, 34.74196498633664, 0.0 ], [ -120.044706700587398, 34.741745579372058, 0.0 ], [ -120.044978439601707, 34.741702570117837, 0.0 ], [ -120.045200215819506, 34.741723742493171, 0.0 ], [ -120.045227087826504, 34.741726308379768, 0.0 ], [ -120.045568287749404, 34.741811980309187, 0.0 ], [ -120.046198624608095, 34.741940438740073, 0.0 ], [ -120.046476195967202, 34.741983230205918, 0.0 ], [ -120.046695923462806, 34.741987908538121, 0.0 ], [ -120.046932997611904, 34.741992579373132, 0.0 ], [ -120.047152735569696, 34.742016324358687, 0.0 ], [ -120.047355131003798, 34.742044843398673, 0.0 ], [ -120.047499712760796, 34.74208768707048, 0.0 ], [ -120.047777315583104, 34.742178145999318, 0.0 ], [ -120.047950820280093, 34.742240045507998, 0.0 ], [ -120.0480838298311, 34.742268592167321, 0.0 ], [ -120.048292040155204, 34.742349544166373, 0.0 ], [ -120.048401920702702, 34.742378100164252, 0.0 ], [ -120.048621607913404, 34.742316036694703, 0.0 ], [ -120.048916495827697, 34.742306376989163, 0.0 ], [ -120.049251934741207, 34.742415876152918, 0.0 ], [ -120.049448579523997, 34.742492064569873, 0.0 ], [ -120.049679903051299, 34.742544401918359, 0.0 ], [ -120.049974814122095, 34.742568109004928, 0.0 ], [ -120.050107849416406, 34.742634790146248, 0.0 ], [ -120.050148373413805, 34.742711045263469, 0.0 ], [ -120.050165781384194, 34.742806377963213, 0.0 ], [ -120.0501658456283, 34.742906486448369, 0.0 ], [ -120.050200606636906, 34.743011345312361, 0.0 ], [ -120.050252665583798, 34.743039925649477, 0.0 ], [ -120.050345182531402, 34.743039885188907, 0.0 ], [ -120.050449243244501, 34.743006470091629, 0.0 ], [ -120.050559068913202, 34.742949217521669, 0.0 ], [ -120.050616861207402, 34.742901521513019, 0.0 ], [ -120.050680426796205, 34.742839521841717, 0.0 ], [ -120.050761701186403, 34.742778151222367, 0.0 ], [ -120.050923164198295, 34.742658266896271, 0.0 ], [ -120.051015630917604, 34.742581954035693, 0.0 ], [ -120.051200585669704, 34.742462695781157, 0.0 ], [ -120.051333558128704, 34.742434034322457, 0.0 ], [ -120.051426083766799, 34.742448294081072, 0.0 ], [ -120.051532906349607, 34.742527080194407, 0.0 ], [ -120.0515379250633, 34.742523617756987, 0.0 ], [ -120.051614947799195, 34.742559857091152, 0.0 ], [ -120.0517422065912, 34.742633689030001, 0.0 ], [ -120.051872333211705, 34.742671766354903, 0.0 ], [ -120.051956175787595, 34.742671728510032, 0.0 ], [ -120.052080470722203, 34.742635920018103, 0.0 ], [ -120.0522018710503, 34.742595345373843, 0.0 ], [ -120.052294349202398, 34.742538098996903, 0.0 ], [ -120.052300266444405, 34.742528633712944, 0.0 ], [ -120.052340558451505, 34.742464188850057, 0.0 ], [ -120.052415691225804, 34.742409333025812, 0.0 ], [ -120.052461926384694, 34.742375942426378, 0.0 ], [ -120.052606469848797, 34.742356808878043, 0.0 ], [ -120.052745251550206, 34.742368662743679, 0.0 ], [ -120.052891826720895, 34.742376031097777, 0.0 ], [ -120.052933181609802, 34.742378110166278, 0.0 ], [ -120.0529938897091, 34.742370932113303, 0.0 ], [ -120.053225163319098, 34.742346989559259, 0.0 ], [ -120.053349445769001, 34.742294494929631, 0.0 ], [ -120.053394772611398, 34.742248581567686, 0.0 ], [ -120.053413007067903, 34.742230110048297, 0.0 ], [ -120.053502599133296, 34.742182398685408, 0.0 ], [ -120.053615336678305, 34.742158510423558, 0.0 ], [ -120.053757001278399, 34.742158444295782, 0.0 ], [ -120.053866871377593, 34.742191525489758, 0.0 ], [ -120.053873825448093, 34.74218533154685, 0.0 ] ] ] ] } }
]
}
